STARLINK-30331          
1 57740U 23131J   26068.42143977 -.00001789  00000+0 -55499-4 0  9994
2 57740  43.0033 100.9149 0001185 268.4448  91.6268 15.27577219140736
FLOCK 4G-29             
1 62642U 25009AK  26068.81464037  .00011147  00000+0  41831-3 0  9994
2 62642  97.4058 151.3683 0001366 288.0502  72.0588 15.27382318 63721
